[{"OBJECT_NAME":"SHIJIAN-6 02B (SJ-6 02B)","OBJECT_ID":"2006-046B","EPOCH":"2026-04-04T05:29:56.920128","MEAN_MOTION":15.01133141,"ECCENTRICITY":0.00122237,"INCLINATION":97.71,"RA_OF_ASC_NODE":123.7678,"ARG_OF_PERICENTER":320.3285,"MEAN_ANOMALY":39.7044,"EPHEMERIS_TYPE":0,"CLASSIFICATION_TYPE":"U","NORAD_CAT_ID":29506,"ELEMENT_SET_NO":999,"REV_AT_EPOCH":5964,"BSTAR":0.00024455648,"MEAN_MOTION_DOT":3.076e-5,"MEAN_MOTION_DDOT":0},{"OBJECT_NAME":"FGRST (GLAST)","OBJECT_ID":"2008-029A","EPOCH":"2026-04-04T02:20:01.238784","MEAN_MOTION":15.2354101,"ECCENTRICITY":0.00082085,"INCLINATION":25.584,"RA_OF_ASC_NODE":358.7641,"ARG_OF_PERICENTER":169.4642,"MEAN_ANOMALY":190.6069,"EPHEMERIS_TYPE":0,"CLASSIFICATION_TYPE":"U","NORAD_CAT_ID":33053,"ELEMENT_SET_NO":999,"REV_AT_EPOCH":98452,"BSTAR":0.00026795626,"MEAN_MOTION_DOT":6.934e-5,"MEAN_MOTION_DDOT":0},{"OBJECT_NAME":"SDO","OBJECT_ID":"2010-005A","EPOCH":"2026-04-03T00:09:38.804832","MEAN_MOTION":1.00274249,"ECCENTRICITY":5.789e-5,"INCLINATION":34.4952,"RA_OF_ASC_NODE":87.4755,"ARG_OF_PERICENTER":22.7728,"MEAN_ANOMALY":341.7255,"EPHEMERIS_TYPE":0,"CLASSIFICATION_TYPE":"U","NORAD_CAT_ID":36395,"ELEMENT_SET_NO":999,"REV_AT_EPOCH":5931,"BSTAR":0,"MEAN_MOTION_DOT":-5.4e-7,"MEAN_MOTION_DDOT":0},{"OBJECT_NAME":"CRYOSAT 2","OBJECT_ID":"2010-013A","EPOCH":"2026-04-04T06:26:03.071040","MEAN_MOTION":14.51898295,"ECCENTRICITY":0.00024514,"INCLINATION":92.0253,"RA_OF_ASC_NODE":259.3747,"ARG_OF_PERICENTER":96.8806,"MEAN_ANOMALY":263.268,"EPHEMERIS_TYPE":0,"CLASSIFICATION_TYPE":"U","NORAD_CAT_ID":36508,"ELEMENT_SET_NO":999,"REV_AT_EPOCH":84735,"BSTAR":9.6493472e-5,"MEAN_MOTION_DOT":3.92e-6,"MEAN_MOTION_DDOT":0},{"OBJECT_NAME":"X-SAT","OBJECT_ID":"2011-015C","EPOCH":"2026-04-04T05:28:53.677056","MEAN_MOTION":14.25183699,"ECCENTRICITY":0.00134858,"INCLINATION":98.3461,"RA_OF_ASC_NODE":74.7982,"ARG_OF_PERICENTER":195.5413,"MEAN_ANOMALY":164.5356,"EPHEMERIS_TYPE":0,"CLASSIFICATION_TYPE":"U","NORAD_CAT_ID":37389,"ELEMENT_SET_NO":999,"REV_AT_EPOCH":77714,"BSTAR":0.00013625198,"MEAN_MOTION_DOT":2.79e-6,"MEAN_MOTION_DDOT":0},{"OBJECT_NAME":"GCOM-W1 (SHIZUKU)","OBJECT_ID":"2012-025A","EPOCH":"2026-04-04T07:13:19.231392","MEAN_MOTION":14.57138238,"ECCENTRICITY":0.00011236,"INCLINATION":98.2088,"RA_OF_ASC_NODE":35.9836,"ARG_OF_PERICENTER":75.3642,"MEAN_ANOMALY":85.9206,"EPHEMERIS_TYPE":0,"CLASSIFICATION_TYPE":"U","NORAD_CAT_ID":38337,"ELEMENT_SET_NO":999,"REV_AT_EPOCH":73827,"BSTAR":0.0002370215,"MEAN_MOTION_DOT":1.023e-5,"MEAN_MOTION_DDOT":0},{"OBJECT_NAME":"NUSTAR","OBJECT_ID":"2012-031A","EPOCH":"2026-04-04T06:00:02.000160","MEAN_MOTION":15.08080162,"ECCENTRICITY":0.00069117,"INCLINATION":6.0262,"RA_OF_ASC_NODE":228.4555,"ARG_OF_PERICENTER":86.4001,"MEAN_ANOMALY":237.1994,"EPHEMERIS_TYPE":0,"CLASSIFICATION_TYPE":"U","NORAD_CAT_ID":38358,"ELEMENT_SET_NO":999,"REV_AT_EPOCH":130,"BSTAR":0.00059151932,"MEAN_MOTION_DOT":0.00010261,"MEAN_MOTION_DDOT":0},{"OBJECT_NAME":"NEOSSAT","OBJECT_ID":"2013-009D","EPOCH":"2026-04-04T04:50:37.722336","MEAN_MOTION":14.35799793,"ECCENTRICITY":0.00121654,"INCLINATION":98.416,"RA_OF_ASC_NODE":275.9975,"ARG_OF_PERICENTER":105.7698,"MEAN_ANOMALY":254.4831,"EPHEMERIS_TYPE":0,"CLASSIFICATION_TYPE":"U","NORAD_CAT_ID":39089,"ELEMENT_SET_NO":999,"REV_AT_EPOCH":68612,"BSTAR":0.00011434682,"MEAN_MOTION_DOT":2.88e-6,"MEAN_MOTION_DDOT":0},{"OBJECT_NAME":"BRITE-AUSTRIA","OBJECT_ID":"2013-009F","EPOCH":"2026-04-04T00:40:36.030720","MEAN_MOTION":14.3651178,"ECCENTRICITY":0.00113831,"INCLINATION":98.3975,"RA_OF_ASC_NODE":275.3041,"ARG_OF_PERICENTER":100.8326,"MEAN_ANOMALY":259.4142,"EPHEMERIS_TYPE":0,"CLASSIFICATION_TYPE":"U","NORAD_CAT_ID":39091,"ELEMENT_SET_NO":999,"REV_AT_EPOCH":68640,"BSTAR":0.00014299405,"MEAN_MOTION_DOT":3.77e-6,"MEAN_MOTION_DDOT":0},{"OBJECT_NAME":"IRIS","OBJECT_ID":"2013-033A","EPOCH":"2026-04-04T03:40:25.871808","MEAN_MOTION":14.85729007,"ECCENTRICITY":0.00240226,"INCLINATION":97.9379,"RA_OF_ASC_NODE":293.6464,"ARG_OF_PERICENTER":198.1792,"MEAN_ANOMALY":161.8567,"EPHEMERIS_TYPE":0,"CLASSIFICATION_TYPE":"U","NORAD_CAT_ID":39197,"ELEMENT_SET_NO":999,"REV_AT_EPOCH":68938,"BSTAR":0.0002923321,"MEAN_MOTION_DOT":2.495e-5,"MEAN_MOTION_DDOT":0},{"OBJECT_NAME":"HISAKI (SPRINT-A)","OBJECT_ID":"2013-049A","EPOCH":"2026-04-03T12:32:29.337792","MEAN_MOTION":13.55534574,"ECCENTRICITY":0.01364157,"INCLINATION":29.7188,"RA_OF_ASC_NODE":239.6085,"ARG_OF_PERICENTER":131.5265,"MEAN_ANOMALY":229.7098,"EPHEMERIS_TYPE":0,"CLASSIFICATION_TYPE":"U","NORAD_CAT_ID":39253,"ELEMENT_SET_NO":999,"REV_AT_EPOCH":62128,"BSTAR":0.00015206652,"MEAN_MOTION_DOT":1.77e-6,"MEAN_MOTION_DDOT":0},{"OBJECT_NAME":"CASSIOPE","OBJECT_ID":"2013-055A","EPOCH":"2026-04-04T05:32:54.820320","MEAN_MOTION":15.20713989,"ECCENTRICITY":0.03069495,"INCLINATION":80.9171,"RA_OF_ASC_NODE":156.1926,"ARG_OF_PERICENTER":310.7339,"MEAN_ANOMALY":46.7598,"EPHEMERIS_TYPE":0,"CLASSIFICATION_TYPE":"U","NORAD_CAT_ID":39265,"ELEMENT_SET_NO":999,"REV_AT_EPOCH":65641,"BSTAR":0.00055071321,"MEAN_MOTION_DOT":0.00046369,"MEAN_MOTION_DDOT":-1.27607e-7},{"OBJECT_NAME":"STSAT-3","OBJECT_ID":"2013-066G","EPOCH":"2026-04-04T06:11:07.587744","MEAN_MOTION":15.0233216,"ECCENTRICITY":0.00089303,"INCLINATION":97.6163,"RA_OF_ASC_NODE":65.404,"ARG_OF_PERICENTER":283.1318,"MEAN_ANOMALY":76.891,"EPHEMERIS_TYPE":0,"CLASSIFICATION_TYPE":"U","NORAD_CAT_ID":39422,"ELEMENT_SET_NO":999,"REV_AT_EPOCH":67310,"BSTAR":0.00074865714,"MEAN_MOTION_DOT":9.853e-5,"MEAN_MOTION_DDOT":0},{"OBJECT_NAME":"SWARM B","OBJECT_ID":"2013-067A","EPOCH":"2026-04-04T06:37:52.199904","MEAN_MOTION":15.28112399,"ECCENTRICITY":0.0002912,"INCLINATION":87.7505,"RA_OF_ASC_NODE":4.7437,"ARG_OF_PERICENTER":77.4607,"MEAN_ANOMALY":282.6968,"EPHEMERIS_TYPE":0,"CLASSIFICATION_TYPE":"U","NORAD_CAT_ID":39451,"ELEMENT_SET_NO":999,"REV_AT_EPOCH":67195,"BSTAR":0.00026253289,"MEAN_MOTION_DOT":7.225e-5,"MEAN_MOTION_DDOT":0},{"OBJECT_NAME":"SWARM A","OBJECT_ID":"2013-067B","EPOCH":"2026-04-04T05:45:59.143104","MEAN_MOTION":15.49410001,"ECCENTRICITY":0.00035129,"INCLINATION":87.3285,"RA_OF_ASC_NODE":83.6802,"ARG_OF_PERICENTER":95.4249,"MEAN_ANOMALY":264.7412,"EPHEMERIS_TYPE":0,"CLASSIFICATION_TYPE":"U","NORAD_CAT_ID":39452,"ELEMENT_SET_NO":999,"REV_AT_EPOCH":69479,"BSTAR":0.00034640247,"MEAN_MOTION_DOT":0.00019059,"MEAN_MOTION_DDOT":0},{"OBJECT_NAME":"SWARM C","OBJECT_ID":"2013-067C","EPOCH":"2026-04-04T05:45:52.977600","MEAN_MOTION":15.49407552,"ECCENTRICITY":0.00035163,"INCLINATION":87.3286,"RA_OF_ASC_NODE":82.2612,"ARG_OF_PERICENTER":95.7385,"MEAN_ANOMALY":264.4277,"EPHEMERIS_TYPE":0,"CLASSIFICATION_TYPE":"U","NORAD_CAT_ID":39453,"ELEMENT_SET_NO":999,"REV_AT_EPOCH":69475,"BSTAR":0.0003483482,"MEAN_MOTION_DOT":0.00019164,"MEAN_MOTION_DDOT":0},{"OBJECT_NAME":"BRITE-CA1 (TORONTO)","OBJECT_ID":"2014-033L","EPOCH":"2026-04-04T05:56:13.998336","MEAN_MOTION":14.72552082,"ECCENTRICITY":0.00795063,"INCLINATION":97.9616,"RA_OF_ASC_NODE":224.5943,"ARG_OF_PERICENTER":152.8274,"MEAN_ANOMALY":207.7128,"EPHEMERIS_TYPE":0,"CLASSIFICATION_TYPE":"U","NORAD_CAT_ID":40020,"ELEMENT_SET_NO":999,"REV_AT_EPOCH":63133,"BSTAR":0.00039331353,"MEAN_MOTION_DOT":2.576e-5,"MEAN_MOTION_DDOT":0}]
