SHIJIAN-6 02B (SJ-6 02B)
1 29506U 06046B   26094.22913102  .00003076  00000+0  24456-3 0  9998
2 29506  97.7100 123.7678 0012223 320.3285  39.7044 15.01133141 59646
FGRST (GLAST)           
1 33053U 08029A   26094.09723656  .00006934  00000+0  26796-3 0  9996
2 33053  25.5840 358.7641 0008208 169.4642 190.6069 15.23541010984525
SDO                     
1 36395U 10005A   26093.00669913 -.00000054  00000+0  00000+0 0  9994
2 36395  34.4952  87.4755 0000578  22.7728 341.7255  1.00274249 59313
CRYOSAT 2               
1 36508U 10013A   26094.26809110  .00000392  00000+0  96493-4 0  9993
2 36508  92.0253 259.3747 0002451  96.8806 263.2680 14.51898295847357
X-SAT                   
1 37389U 11015C   26094.22839904  .00000279  00000+0  13625-3 0  9993
2 37389  98.3461  74.7982 0013485 195.5413 164.5356 14.25183699777143
GCOM-W1 (SHIZUKU)       
1 38337U 12025A   26094.30091703  .00001023  00000+0  23702-3 0  9990
2 38337  98.2088  35.9836 0001123  75.3642  85.9206 14.57138238738278
NUSTAR                  
1 38358U 12031A   26094.25002315  .00010261  00000+0  59152-3 0  9997
2 38358   6.0262 228.4555 0006911  86.4001 237.1994 15.08080162  1302
NEOSSAT                 
1 39089U 13009D   26094.20182549  .00000288  00000+0  11435-3 0  9998
2 39089  98.4160 275.9975 0012165 105.7698 254.4831 14.35799793686121
BRITE-AUSTRIA           
1 39091U 13009F   26094.02819480  .00000377  00000+0  14299-3 0  9992
2 39091  98.3975 275.3041 0011383 100.8326 259.4142 14.36511780686400
IRIS                    
1 39197U 13033A   26094.15307722  .00002495  00000+0  29233-3 0  9998
2 39197  97.9379 293.6464 0024022 198.1792 161.8567 14.85729007689387
HISAKI (SPRINT-A)       
1 39253U 13049A   26093.52256178  .00000177  00000+0  15207-3 0  9997
2 39253  29.7188 239.6085 0136415 131.5265 229.7098 13.55534574621283
CASSIOPE                
1 39265U 13055A   26094.23119005  .00046369 -12761-6  55071-3 0  9994
2 39265  80.9171 156.1926 0306949 310.7339  46.7598 15.20713989656416
STSAT-3                 
1 39422U 13066G   26094.25772671  .00009853  00000+0  74866-3 0  9992
2 39422  97.6163  65.4040 0008930 283.1318  76.8910 15.02332160673100
SWARM B                 
1 39451U 13067A   26094.27629861  .00007225  00000+0  26253-3 0  9997
2 39451  87.7505   4.7437 0002912  77.4607 282.6968 15.28112399671956
SWARM A                 
1 39452U 13067B   26094.24026786  .00019059  00000+0  34640-3 0  9999
2 39452  87.3285  83.6802 0003512  95.4249 264.7412 15.49410001694795
SWARM C                 
1 39453U 13067C   26094.24019650  .00019164  00000+0  34835-3 0  9995
2 39453  87.3286  82.2612 0003516  95.7385 264.4277 15.49407552694758
BRITE-CA1 (TORONTO)     
1 40020U 14033L   26094.24738424  .00002576  00000+0  39331-3 0  9993
2 40020  97.9616 224.5943 0079506 152.8274 207.7128 14.72552082631330
